COSMOS 2058             
1 20465U 90010A   26084.60379355  .00004597  00000+0  27010-3 0  9992
2 20465  82.4683  31.7458 0007427 282.8865  77.1536 15.11459947944649
SL-14 R/B               
1 20466U 90010B   26084.53678319  .00000489  00000+0  56340-4 0  9992
2 20466  82.4991 252.4984 0018447 245.9352 113.9934 14.83582753930830
SL-14 R/B               
1 20511U 90018B   26084.43480232  .00000471  00000+0  56082-4 0  9999
2 20511  82.5232 208.3751 0017181  44.1512 316.1070 14.82160153924918
HST                     
1 20580U 90037B   26084.60145625  .00007051  00000+0  23018-3 0  9992
2 20580  28.4722 291.4354 0001528 309.7009  50.3452 15.29721912775753
SL-16 R/B               
1 20625U 90046B   26084.24940163  .00000185  00000+0  12003-3 0  9995
2 20625  70.9952 265.2330 0016286 279.2621  80.6659 14.15013729850596
COSMOS 2084             
1 20663U 90055A   26084.26250298  .00002268  00000+0  16958-3 0  9999
2 20663  62.7893 282.4603 0014640 194.6320 165.4359 15.05732416938668
SL-6 R/B(2)             
1 20666U 90055D   26084.59899887  .00002049  00000+0  16234-3 0  9995
2 20666  62.7831 199.7444 0027397 350.7256   9.3333 15.03670004940586
SL-8 R/B                
1 20775U 90078B   26084.43116681  .00012981  00000+0  38421-3 0  9996
2 20775  82.9020 237.1455 0359034 320.9451  36.6329 14.89544823811646
SL-8 R/B                
1 21088U 91006B   26084.62677208  .00000083  00000+0  68073-4 0  9991
2 21088  82.9451 158.1977 0022057 354.2912 177.8199 13.77496589766268
OKEAN-3                 
1 21397U 91039A   26084.37141819  .00001998  00000+0  13906-3 0  9996
2 21397  82.5167 321.6505 0012368 278.5572  81.4253 15.04897286867397
COSMOS 2151             
1 21422U 91042A   26084.55848807  .00002287  00000+0  18075-3 0  9994
2 21422  82.4941  68.3636 0012791  14.1991 345.9590 15.00168584865572
SL-14 R/B               
1 21423U 91042B   26084.62622965  .00000482  00000+0  57886-4 0  9997
2 21423  82.4952 205.2407 0016935 183.8608 176.2478 14.81845153855432
