CCSDS_OMM_VERS = 2.0
CREATION_DATE  = 
ORIGINATOR     = 

OBJECT_NAME    = COSMOS 2058
OBJECT_ID      = 1990-010A
CENTER_NAME    = EARTH
REF_FRAME      = TEME
TIME_SYSTEM    = UTC
MEAN_ELEMENT_THEORY = SGP/SGP4

EPOCH          = 2026-03-25T14:29:27.762720
MEAN_MOTION    = 15.11459947
ECCENTRICITY   = .00074276
INCLINATION    = 82.4683
RA_OF_ASC_NODE = 31.7458
ARG_OF_PERICENTER = 282.8865
MEAN_ANOMALY   = 77.1536

EPHEMERIS_TYPE = 0
CLASSIFICATION_TYPE = U
NORAD_CAT_ID   = 20465
ELEMENT_SET_NO = 999
REV_AT_EPOCH   = 94464
BSTAR          = .27010394E-3
MEAN_MOTION_DOT = .4597E-4
MEAN_MOTION_DDOT = 0

CCSDS_OMM_VERS = 2.0
CREATION_DATE  = 
ORIGINATOR     = 

OBJECT_NAME    = SL-14 R/B
OBJECT_ID      = 1990-010B
CENTER_NAME    = EARTH
REF_FRAME      = TEME
TIME_SYSTEM    = UTC
MEAN_ELEMENT_THEORY = SGP/SGP4

EPOCH          = 2026-03-25T12:52:58.067616
MEAN_MOTION    = 14.83582753
ECCENTRICITY   = .00184477
INCLINATION    = 82.4991
RA_OF_ASC_NODE = 252.4984
ARG_OF_PERICENTER = 245.9352
MEAN_ANOMALY   = 113.9934

EPHEMERIS_TYPE = 0
CLASSIFICATION_TYPE = U
NORAD_CAT_ID   = 20466
ELEMENT_SET_NO = 999
REV_AT_EPOCH   = 93083
BSTAR          = .56339826E-4
MEAN_MOTION_DOT = .489E-5
MEAN_MOTION_DDOT = 0

CCSDS_OMM_VERS = 2.0
CREATION_DATE  = 
ORIGINATOR     = 

OBJECT_NAME    = SL-14 R/B
OBJECT_ID      = 1990-018B
CENTER_NAME    = EARTH
REF_FRAME      = TEME
TIME_SYSTEM    = UTC
MEAN_ELEMENT_THEORY = SGP/SGP4

EPOCH          = 2026-03-25T10:26:06.920448
MEAN_MOTION    = 14.82160153
ECCENTRICITY   = .00171815
INCLINATION    = 82.5232
RA_OF_ASC_NODE = 208.3751
ARG_OF_PERICENTER = 44.1512
MEAN_ANOMALY   = 316.1070

EPHEMERIS_TYPE = 0
CLASSIFICATION_TYPE = U
NORAD_CAT_ID   = 20511
ELEMENT_SET_NO = 999
REV_AT_EPOCH   = 92491
BSTAR          = .56082332E-4
MEAN_MOTION_DOT = .471E-5
MEAN_MOTION_DDOT = 0

CCSDS_OMM_VERS = 2.0
CREATION_DATE  = 
ORIGINATOR     = 

OBJECT_NAME    = HST
OBJECT_ID      = 1990-037B
CENTER_NAME    = EARTH
REF_FRAME      = TEME
TIME_SYSTEM    = UTC
MEAN_ELEMENT_THEORY = SGP/SGP4

EPOCH          = 2026-03-25T14:26:05.820000
MEAN_MOTION    = 15.29721912
ECCENTRICITY   = .00015282
INCLINATION    = 28.4722
RA_OF_ASC_NODE = 291.4354
ARG_OF_PERICENTER = 309.7009
MEAN_ANOMALY   = 50.3452

EPHEMERIS_TYPE = 0
CLASSIFICATION_TYPE = U
NORAD_CAT_ID   = 20580
ELEMENT_SET_NO = 999
REV_AT_EPOCH   = 77575
BSTAR          = .230179E-3
MEAN_MOTION_DOT = .7051E-4
MEAN_MOTION_DDOT = 0

CCSDS_OMM_VERS = 2.0
CREATION_DATE  = 
ORIGINATOR     = 

OBJECT_NAME    = SL-16 R/B
OBJECT_ID      = 1990-046B
CENTER_NAME    = EARTH
REF_FRAME      = TEME
TIME_SYSTEM    = UTC
MEAN_ELEMENT_THEORY = SGP/SGP4

EPOCH          = 2026-03-25T05:59:08.300832
MEAN_MOTION    = 14.15013729
ECCENTRICITY   = .00162863
INCLINATION    = 70.9952
RA_OF_ASC_NODE = 265.2330
ARG_OF_PERICENTER = 279.2621
MEAN_ANOMALY   = 80.6659

EPHEMERIS_TYPE = 0
CLASSIFICATION_TYPE = U
NORAD_CAT_ID   = 20625
ELEMENT_SET_NO = 999
REV_AT_EPOCH   = 85059
BSTAR          = .12003269E-3
MEAN_MOTION_DOT = .185E-5
MEAN_MOTION_DDOT = 0

CCSDS_OMM_VERS = 2.0
CREATION_DATE  = 
ORIGINATOR     = 

OBJECT_NAME    = COSMOS 2084
OBJECT_ID      = 1990-055A
CENTER_NAME    = EARTH
REF_FRAME      = TEME
TIME_SYSTEM    = UTC
MEAN_ELEMENT_THEORY = SGP/SGP4

EPOCH          = 2026-03-25T06:18:00.257472
MEAN_MOTION    = 15.05732416
ECCENTRICITY   = .00146408
INCLINATION    = 62.7893
RA_OF_ASC_NODE = 282.4603
ARG_OF_PERICENTER = 194.6320
MEAN_ANOMALY   = 165.4359

EPHEMERIS_TYPE = 0
CLASSIFICATION_TYPE = U
NORAD_CAT_ID   = 20663
ELEMENT_SET_NO = 999
REV_AT_EPOCH   = 93866
BSTAR          = .1695807E-3
MEAN_MOTION_DOT = .2268E-4
MEAN_MOTION_DDOT = 0

CCSDS_OMM_VERS = 2.0
CREATION_DATE  = 
ORIGINATOR     = 

OBJECT_NAME    = SL-6 R/B(2)
OBJECT_ID      = 1990-055D
CENTER_NAME    = EARTH
REF_FRAME      = TEME
TIME_SYSTEM    = UTC
MEAN_ELEMENT_THEORY = SGP/SGP4

EPOCH          = 2026-03-25T14:22:33.502368
MEAN_MOTION    = 15.03670004
ECCENTRICITY   = .00273973
INCLINATION    = 62.7831
RA_OF_ASC_NODE = 199.7444
ARG_OF_PERICENTER = 350.7256
MEAN_ANOMALY   = 9.3333

EPHEMERIS_TYPE = 0
CLASSIFICATION_TYPE = U
NORAD_CAT_ID   = 20666
ELEMENT_SET_NO = 999
REV_AT_EPOCH   = 94058
BSTAR          = .16234469E-3
MEAN_MOTION_DOT = .2049E-4
MEAN_MOTION_DDOT = 0

CCSDS_OMM_VERS = 2.0
CREATION_DATE  = 
ORIGINATOR     = 

OBJECT_NAME    = SL-8 R/B
OBJECT_ID      = 1990-078B
CENTER_NAME    = EARTH
REF_FRAME      = TEME
TIME_SYSTEM    = UTC
MEAN_ELEMENT_THEORY = SGP/SGP4

EPOCH          = 2026-03-25T10:20:52.812384
MEAN_MOTION    = 14.89544823
ECCENTRICITY   = .03590343
INCLINATION    = 82.9020
RA_OF_ASC_NODE = 237.1455
ARG_OF_PERICENTER = 320.9451
MEAN_ANOMALY   = 36.6329

EPHEMERIS_TYPE = 0
CLASSIFICATION_TYPE = U
NORAD_CAT_ID   = 20775
ELEMENT_SET_NO = 999
REV_AT_EPOCH   = 81164
BSTAR          = .38420629E-3
MEAN_MOTION_DOT = .12981E-3
MEAN_MOTION_DDOT = 0

CCSDS_OMM_VERS = 2.0
CREATION_DATE  = 
ORIGINATOR     = 

OBJECT_NAME    = SL-8 R/B
OBJECT_ID      = 1991-006B
CENTER_NAME    = EARTH
REF_FRAME      = TEME
TIME_SYSTEM    = UTC
MEAN_ELEMENT_THEORY = SGP/SGP4

EPOCH          = 2026-03-25T15:02:33.107712
MEAN_MOTION    = 13.77496589
ECCENTRICITY   = .0022057
INCLINATION    = 82.9451
RA_OF_ASC_NODE = 158.1977
ARG_OF_PERICENTER = 354.2912
MEAN_ANOMALY   = 177.8199

EPHEMERIS_TYPE = 0
CLASSIFICATION_TYPE = U
NORAD_CAT_ID   = 21088
ELEMENT_SET_NO = 999
REV_AT_EPOCH   = 76626
BSTAR          = .68072558E-4
MEAN_MOTION_DOT = .83E-6
MEAN_MOTION_DDOT = 0

CCSDS_OMM_VERS = 2.0
CREATION_DATE  = 
ORIGINATOR     = 

OBJECT_NAME    = OKEAN-3
OBJECT_ID      = 1991-039A
CENTER_NAME    = EARTH
REF_FRAME      = TEME
TIME_SYSTEM    = UTC
MEAN_ELEMENT_THEORY = SGP/SGP4

EPOCH          = 2026-03-25T08:54:50.531616
MEAN_MOTION    = 15.04897286
ECCENTRICITY   = .00123686
INCLINATION    = 82.5167
RA_OF_ASC_NODE = 321.6505
ARG_OF_PERICENTER = 278.5572
MEAN_ANOMALY   = 81.4253

EPHEMERIS_TYPE = 0
CLASSIFICATION_TYPE = U
NORAD_CAT_ID   = 21397
ELEMENT_SET_NO = 999
REV_AT_EPOCH   = 86739
BSTAR          = .13906011E-3
MEAN_MOTION_DOT = .1998E-4
MEAN_MOTION_DDOT = 0

CCSDS_OMM_VERS = 2.0
CREATION_DATE  = 
ORIGINATOR     = 

OBJECT_NAME    = COSMOS 2151
OBJECT_ID      = 1991-042A
CENTER_NAME    = EARTH
REF_FRAME      = TEME
TIME_SYSTEM    = UTC
MEAN_ELEMENT_THEORY = SGP/SGP4

EPOCH          = 2026-03-25T13:24:13.369248
MEAN_MOTION    = 15.00168584
ECCENTRICITY   = .0012791
INCLINATION    = 82.4941
RA_OF_ASC_NODE = 68.3636
ARG_OF_PERICENTER = 14.1991
MEAN_ANOMALY   = 345.9590

EPHEMERIS_TYPE = 0
CLASSIFICATION_TYPE = U
NORAD_CAT_ID   = 21422
ELEMENT_SET_NO = 999
REV_AT_EPOCH   = 86557
BSTAR          = .18075414E-3
MEAN_MOTION_DOT = .2287E-4
MEAN_MOTION_DDOT = 0

CCSDS_OMM_VERS = 2.0
CREATION_DATE  = 
ORIGINATOR     = 

OBJECT_NAME    = SL-14 R/B
OBJECT_ID      = 1991-042B
CENTER_NAME    = EARTH
REF_FRAME      = TEME
TIME_SYSTEM    = UTC
MEAN_ELEMENT_THEORY = SGP/SGP4

EPOCH          = 2026-03-25T15:01:46.241760
MEAN_MOTION    = 14.81845153
ECCENTRICITY   = .0016935
INCLINATION    = 82.4952
RA_OF_ASC_NODE = 205.2407
ARG_OF_PERICENTER = 183.8608
MEAN_ANOMALY   = 176.2478

EPHEMERIS_TYPE = 0
CLASSIFICATION_TYPE = U
NORAD_CAT_ID   = 21423
ELEMENT_SET_NO = 999
REV_AT_EPOCH   = 85543
BSTAR          = .57885995E-4
MEAN_MOTION_DOT = .482E-5
MEAN_MOTION_DDOT = 0

